OBJECT_NAME,OBJECT_ID,EPOCH,MEAN_MOTION,ECCENTRICITY,INCLINATION,RA_OF_ASC_NODE,ARG_OF_PERICENTER,MEAN_ANOMALY,EPHEMERIS_TYPE,CLASSIFICATION_TYPE,NORAD_CAT_ID,ELEMENT_SET_NO,REV_AT_EPOCH,BSTAR,MEAN_MOTION_DOT,MEAN_MOTION_DDOT
SL-14 R/B,1990-018B,2026-06-18T20:01:07.815072,14.82217023,.0017538,82.5210,128.5682,116.7122,243.5890,0,U,20511,999,93756,.36178E-4,.313E-5,0
HST,1990-037B,2026-06-18T02:54:27.573408,15.30755230,.00017668,28.4721,74.1921,152.2420,207.8270,0,U,20580,999,78871,.15694226E-3,.5032E-4,0
SL-16 R/B,1990-046B,2026-06-18T18:52:02.476128,14.15027084,.0013217,71.0000,85.5900,159.3624,200.8035,0,U,20625,999,86269,.51187E-4,.52E-6,0
COSMOS 2084,1990-055A,2026-06-18T18:54:19.249056,15.06121601,.000563,62.7899,350.6279,281.5674,78.4795,0,U,20663,999,95154,.12382E-3,.1618E-4,0
SL-6 R/B(2),1990-055D,2026-06-18T13:53:04.299072,15.04006872,.004088,62.7823,270.6419,5.3426,354.8101,0,U,20666,999,95336,.97372E-4,.1167E-4,0
SL-8 R/B,1990-078B,2026-06-18T17:41:30.295680,14.92384085,.0350503,82.9021,160.2451,33.2602,329.0116,0,U,20775,999,82435,.58436E-3,.20718E-3,0
SL-8 R/B,1991-006B,2026-06-18T19:19:20.462016,13.77505981,.0023746,82.9425,94.8302,110.2729,303.5611,0,U,21088,999,77799,.45168E-4,.61E-6,0
OKEAN-3,1991-039A,2026-06-18T11:14:01.527072,15.05329907,.0013955,82.5162,239.1393,353.3724,6.7316,0,U,21397,999,88019,.16322E-3,.2368E-4,0
COSMOS 2151,1991-042A,2026-06-18T19:02:50.121024,15.00441878,.0013788,82.4960,346.1304,79.2345,281.0431,0,U,21422,999,87835,.82645E-4,.1068E-4,0
SL-14 R/B,1991-042B,2026-06-18T07:13:10.036704,14.81903087,.0015405,82.4927,125.8512,270.8043,89.1406,0,U,21423,999,86797,.35115E-4,.301E-5,0
ERS-1,1991-050A,2026-06-18T18:19:25.158432,14.39518088,.0030712,98.7797,190.5001,262.1062,97.6639,0,U,21574,999,83027,.66305E-4,.161E-5,0
ARIANE 40 R/B,1991-050F,2026-06-18T17:07:04.595232,14.42957889,.0004292,98.1875,218.0707,118.5347,241.6277,0,U,21610,999,83356,.7561E-4,.211E-5,0
INTERCOSMOS 25,1991-086A,2026-06-18T16:19:10.979616,12.12197571,.1483978,82.6052,248.9064,259.1710,83.9442,0,U,21819,999,50892,.15092E-3,.757E-5,0
SL-8 R/B,1992-008B,2026-06-18T19:42:13.410720,13.75977391,.0033941,82.9261,192.5728,210.0245,323.2998,0,U,21876,999,72332,.1173E-3,.129E-5,0
SL-8 R/B,1992-020B,2026-06-18T19:11:42.740736,13.75549039,.0029624,82.9305,78.6597,18.1617,42.9375,0,U,21938,999,71503,.65089E-4,.78E-6,0
USA 81,1992-023A,2026-06-18T17:48:14.209632,14.32398597,.0002753,85.0074,73.1103,83.3128,276.8378,0,U,21949,999,10925,.46218E-4,.145E-5,0
COSMOS 2219,1992-076A,2026-06-18T17:55:27.686208,14.14100117,.0016678,71.0580,166.8112,41.5398,318.6989,0,U,22219,999,73266,.18699E-3,.309E-5,0
SL-16 R/B,1992-076B,2026-06-18T19:15:10.141344,14.16873039,.0014709,71.0006,335.3788,296.5196,161.9540,0,U,22220,999,73615,.14671E-3,.247E-5,0
COSMOS 2221,1992-080A,2026-06-18T17:50:57.625728,14.96536528,.0013401,82.5029,182.2733,206.7149,153.3384,0,U,22236,999,79590,.9324E-4,.1088E-4,0
SL-16 R/B,1992-093B,2026-06-18T15:44:23.888256,14.15460555,.0003871,71.0196,152.3080,185.7021,174.4059,0,U,22285,999,72744,-.10701E-3,-.257E-5,0
COSMOS 2228,1992-094A,2026-06-18T21:24:03.507264,14.97591739,.0016754,82.5174,140.4100,326.3343,33.6814,0,U,22286,999,79120,.12988E-3,.1547E-4,0
SL-16 R/B,1993-016B,2026-06-18T18:39:29.171808,14.15314983,.0010117,71.0085,2.8669,181.2677,178.8422,0,U,22566,999,71647,.11817E-3,.183E-5,0
COSMOS 2242,1993-024A,2026-06-18T17:14:15.671616,14.96907488,.0015222,82.5179,170.0780,330.8654,29.1717,0,U,22626,999,79550,.1107E-3,.1299E-4,0
SL-16 R/B,1993-059B,2026-06-18T16:33:16.756128,14.17248160,.0015274,70.9886,158.1349,51.4163,308.8326,0,U,22803,999,69384,-.5184E-4,-.153E-5,0
ARIANE 40 R/B,1993-061H,2026-06-18T17:47:55.612032,14.32908509,.0010357,98.4819,236.5664,351.6287,8.4723,0,U,22830,999,70857,.65192E-4,.135E-5,0
COSMOS 2278,1994-023A,2026-06-18T17:34:12.601056,14.14398523,.0010607,71.0550,323.6923,241.6194,118.3860,0,U,23087,999,65909,.44258E-4,.38E-6,0
SL-16 R/B,1994-023B,2026-06-18T14:12:10.561824,14.15026139,.0002668,70.9993,218.9816,185.9404,174.1687,0,U,23088,999,66036,.1257E-3,.196E-5,0
SL-16 R/B,1994-074B,2026-06-18T20:37:06.017088,14.79503501,.000519,97.6989,196.5105,246.4697,286.3917,0,U,23343,999,70220,.46518E-4,.299E-5,0
SL-16 R/B,1994-077B,2026-06-18T16:12:29.210112,14.15572703,.0002986,70.9811,140.0315,326.8718,33.2217,0,U,23405,999,63052,.1165E-3,.18E-5,0
ARIANE 40+ R/B,1995-021B,2026-06-18T19:13:57.209376,14.39834161,.0006567,98.4411,239.8529,188.7666,282.5792,0,U,23561,999,63379,.77696E-4,.2E-5,0
SL-16 R/B,1995-058B,2026-06-18T18:11:19.301856,14.15509445,.0013864,71.0222,328.0604,318.3436,41.6630,0,U,23705,999,58215,.16152E-3,.268E-5,0
