SL-14 R/B               
1 20511U 90018B   26169.83411823  .00000313  00000+0  36178-4 0  9996
2 20511  82.5210 128.5682 0017538 116.7122 243.5890 14.82217023937566
HST                     
1 20580U 90037B   26169.12115247  .00005032  00000+0  15694-3 0  9998
2 20580  28.4721  74.1921 0001766 152.2420 207.8270 15.30755230788719
SL-16 R/B               
1 20625U 90046B   26169.78613977  .00000052  00000+0  51187-4 0  9998
2 20625  71.0000  85.5900 0013217 159.3624 200.8035 14.15027084862697
COSMOS 2084             
1 20663U 90055A   26169.78772279  .00001618  00000+0  12382-3 0  9993
2 20663  62.7899 350.6279 0005630 281.5674  78.4795 15.06121601951546
SL-6 R/B(2)             
1 20666U 90055D   26169.57852198  .00001167  00000+0  97372-4 0  9994
2 20666  62.7823 270.6419 0040880   5.3426 354.8101 15.04006872953360
SL-8 R/B                
1 20775U 90078B   26169.73715620  .00020718  00000+0  58436-3 0  9996
2 20775  82.9021 160.2451 0350503  33.2602 329.0116 14.92384085824354
SL-8 R/B                
1 21088U 91006B   26169.80509794  .00000061  00000+0  45168-4 0  9995
2 21088  82.9425  94.8302 0023746 110.2729 303.5611 13.77505981777995
OKEAN-3                 
1 21397U 91039A   26169.46807323  .00002368  00000+0  16322-3 0  9996
2 21397  82.5162 239.1393 0013955 353.3724   6.7316 15.05329907880198
COSMOS 2151             
1 21422U 91042A   26169.79363566  .00001068  00000+0  82645-4 0  9999
2 21422  82.4960 346.1304 0013788  79.2345 281.0431 15.00441878878358
SL-14 R/B               
1 21423U 91042B   26169.30081061  .00000301  00000+0  35115-4 0  9993
2 21423  82.4927 125.8512 0015405 270.8043  89.1406 14.81903087867975
ERS-1                   
1 21574U 91050A   26169.76348563  .00000161  00000+0  66305-4 0  9991
2 21574  98.7797 190.5001 0030712 262.1062  97.6639 14.39518088830273
ARIANE 40 R/B           
1 21610U 91050F   26169.71324763  .00000211  00000+0  75610-4 0  9998
2 21610  98.1875 218.0707 0004292 118.5347 241.6277 14.42957889833562
INTERCOSMOS 25          
1 21819U 91086A   26169.67998819  .00000757  00000+0  15092-3 0  9994
2 21819  82.6052 248.9064 1483978 259.1710  83.9442 12.12197571508924
SL-8 R/B                
1 21876U 92008B   26169.82098855  .00000129  00000+0  11730-3 0  9998
2 21876  82.9261 192.5728 0033941 210.0245 323.2998 13.75977391723327
SL-8 R/B                
1 21938U 92020B   26169.79980024  .00000078  00000+0  65089-4 0  9995
2 21938  82.9305  78.6597 0029624  18.1617  42.9375 13.75549039715033
USA 81                  
1 21949U 92023A   26169.74183113  .00000145  00000+0  46218-4 0  9997
2 21949  85.0074  73.1103 0002753  83.3128 276.8378 14.32398597109257
COSMOS 2219             
1 22219U 92076A   26169.74684822  .00000309  00000+0  18699-3 0  9992
2 22219  71.0580 166.8112 0016678  41.5398 318.6989 14.14100117732660
SL-16 R/B               
1 22220U 92076B   26169.80220071  .00000247  00000+0  14671-3 0  9990
2 22220  71.0006 335.3788 0014709 296.5196 161.9540 14.16873039736150
COSMOS 2221             
1 22236U 92080A   26169.74372252  .00001088  00000+0  93240-4 0  9998
2 22236  82.5029 182.2733 0013401 206.7149 153.3384 14.96536528795903
SL-16 R/B               
1 22285U 92093B   26169.65583204 -.00000257  00000+0 -10701-3 0  9996
2 22285  71.0196 152.3080 0003871 185.7021 174.4059 14.15460555727447
COSMOS 2228             
1 22286U 92094A   26169.89170726  .00001547  00000+0  12988-3 0  9995
2 22286  82.5174 140.4100 0016754 326.3343  33.6814 14.97591739791205
SL-16 R/B               
1 22566U 93016B   26169.77742097  .00000183  00000+0  11817-3 0  9999
2 22566  71.0085   2.8669 0010117 181.2677 178.8422 14.15314983716473
COSMOS 2242             
1 22626U 93024A   26169.71823694  .00001299  00000+0  11070-3 0  9992
2 22626  82.5179 170.0780 0015222 330.8654  29.1717 14.96907488795505
SL-16 R/B               
1 22803U 93059B   26169.68977727 -.00000153  00000+0 -51840-4 0  9990
2 22803  70.9886 158.1349 0015274  51.4163 308.8326 14.17248160693849
ARIANE 40 R/B           
1 22830U 93061H   26169.74161588  .00000135  00000+0  65192-4 0  9993
2 22830  98.4819 236.5664 0010357 351.6287   8.4723 14.32908509708578
COSMOS 2278             
1 23087U 94023A   26169.73209029  .00000038  00000+0  44258-4 0  9991
2 23087  71.0550 323.6923 0010607 241.6194 118.3860 14.14398523659095
SL-16 R/B               
1 23088U 94023B   26169.59178891  .00000196  00000+0  12570-3 0  9994
2 23088  70.9993 218.9816 0002668 185.9404 174.1687 14.15026139660365
SL-16 R/B               
1 23343U 94074B   26169.85909742  .00000299  00000+0  46518-4 0  9994
2 23343  97.6989 196.5105 0005190 246.4697 286.3917 14.79503501702207
SL-16 R/B               
1 23405U 94077B   26169.67533808  .00000180  00000+0  11650-3 0  9999
2 23405  70.9811 140.0315 0002986 326.8718  33.2217 14.15572703630525
ARIANE 40+ R/B          
1 23561U 95021B   26169.80135659  .00000200  00000+0  77696-4 0  9995
2 23561  98.4411 239.8529 0006567 188.7666 282.5792 14.39834161633793
SL-16 R/B               
1 23705U 95058B   26169.75786229  .00000268  00000+0  16152-3 0  9997
2 23705  71.0222 328.0604 0013864 318.3436  41.6630 14.15509445582155
